[{"OBJECT_NAME":"ONEWEB-0266","OBJECT_ID":"2021-060T","EPOCH":"2026-03-13T10:47:17.468736","MEAN_MOTION":13.16596563,"ECCENTRICITY":0.00016693,"INCLINATION":87.9008,"RA_OF_ASC_NODE":247.8138,"ARG_OF_PERICENTER":93.5902,"MEAN_ANOMALY":266.542,"EPHEMERIS_TYPE":0,"CLASSIFICATION_TYPE":"U","NORAD_CAT_ID":48984,"ELEMENT_SET_NO":999,"REV_AT_EPOCH":22698,"BSTAR":3.0780693e-5,"MEAN_MOTION_DOT":2.5e-7,"MEAN_MOTION_DDOT":0},{"OBJECT_NAME":"ONEWEB-0267","OBJECT_ID":"2021-060U","EPOCH":"2026-03-13T11:03:15.241248","MEAN_MOTION":13.16593365,"ECCENTRICITY":0.00017366,"INCLINATION":87.9005,"RA_OF_ASC_NODE":247.8081,"ARG_OF_PERICENTER":103.161,"MEAN_ANOMALY":256.9715,"EPHEMERIS_TYPE":0,"CLASSIFICATION_TYPE":"U","NORAD_CAT_ID":48985,"ELEMENT_SET_NO":999,"REV_AT_EPOCH":22699,"BSTAR":0.00012482447,"MEAN_MOTION_DOT":6.1e-7,"MEAN_MOTION_DDOT":0},{"OBJECT_NAME":"ONEWEB-0268","OBJECT_ID":"2021-060V","EPOCH":"2026-03-13T01:10:28.992288","MEAN_MOTION":13.16593854,"ECCENTRICITY":0.00016026,"INCLINATION":87.9007,"RA_OF_ASC_NODE":247.9001,"ARG_OF_PERICENTER":98.3349,"MEAN_ANOMALY":261.7964,"EPHEMERIS_TYPE":0,"CLASSIFICATION_TYPE":"U","NORAD_CAT_ID":48986,"ELEMENT_SET_NO":999,"REV_AT_EPOCH":22720,"BSTAR":-9.880733e-5,"MEAN_MOTION_DOT":-2.5e-7,"MEAN_MOTION_DDOT":0},{"OBJECT_NAME":"ONEWEB-0269","OBJECT_ID":"2021-060W","EPOCH":"2026-03-13T09:50:17.953728","MEAN_MOTION":13.16594347,"ECCENTRICITY":0.000147,"INCLINATION":87.8997,"RA_OF_ASC_NODE":247.8414,"ARG_OF_PERICENTER":93.1883,"MEAN_ANOMALY":266.9416,"EPHEMERIS_TYPE":0,"CLASSIFICATION_TYPE":"U","NORAD_CAT_ID":48987,"ELEMENT_SET_NO":999,"REV_AT_EPOCH":22702,"BSTAR":0.00011345567,"MEAN_MOTION_DOT":5.6e-7,"MEAN_MOTION_DDOT":0},{"OBJECT_NAME":"ONEWEB-0270","OBJECT_ID":"2021-060X","EPOCH":"2026-03-12T12:22:09.272640","MEAN_MOTION":13.16593872,"ECCENTRICITY":0.0002037,"INCLINATION":87.9007,"RA_OF_ASC_NODE":248.0083,"ARG_OF_PERICENTER":102.227,"MEAN_ANOMALY":257.9089,"EPHEMERIS_TYPE":0,"CLASSIFICATION_TYPE":"U","NORAD_CAT_ID":48988,"ELEMENT_SET_NO":999,"REV_AT_EPOCH":22694,"BSTAR":-3.1829e-5,"MEAN_MOTION_DOT":1.0e-8,"MEAN_MOTION_DDOT":0},{"OBJECT_NAME":"ONEWEB-0271","OBJECT_ID":"2021-060Y","EPOCH":"2026-03-13T09:57:06.931584","MEAN_MOTION":13.16596908,"ECCENTRICITY":0.00018299,"INCLINATION":87.9008,"RA_OF_ASC_NODE":247.8198,"ARG_OF_PERICENTER":103.6247,"MEAN_ANOMALY":256.5088,"EPHEMERIS_TYPE":0,"CLASSIFICATION_TYPE":"U","NORAD_CAT_ID":48989,"ELEMENT_SET_NO":999,"REV_AT_EPOCH":22706,"BSTAR":7.0946516e-5,"MEAN_MOTION_DOT":4.0e-7,"MEAN_MOTION_DDOT":0},{"OBJECT_NAME":"ONEWEB-0272","OBJECT_ID":"2021-060Z","EPOCH":"2026-03-13T10:29:01.837248","MEAN_MOTION":13.16593314,"ECCENTRICITY":0.00016129,"INCLINATION":87.9006,"RA_OF_ASC_NODE":247.8265,"ARG_OF_PERICENTER":105.8758,"MEAN_ANOMALY":254.255,"EPHEMERIS_TYPE":0,"CLASSIFICATION_TYPE":"U","NORAD_CAT_ID":48990,"ELEMENT_SET_NO":999,"REV_AT_EPOCH":22701,"BSTAR":-0.00048382391,"MEAN_MOTION_DOT":-1.72e-6,"MEAN_MOTION_DDOT":0},{"OBJECT_NAME":"ONEWEB-0273","OBJECT_ID":"2021-060AA","EPOCH":"2026-03-13T11:00:58.787136","MEAN_MOTION":13.16593412,"ECCENTRICITY":0.0001794,"INCLINATION":87.9006,"RA_OF_ASC_NODE":247.8203,"ARG_OF_PERICENTER":99.6042,"MEAN_ANOMALY":260.5292,"EPHEMERIS_TYPE":0,"CLASSIFICATION_TYPE":"U","NORAD_CAT_ID":48991,"ELEMENT_SET_NO":999,"REV_AT_EPOCH":22699,"BSTAR":0.0001076347,"MEAN_MOTION_DOT":5.4e-7,"MEAN_MOTION_DDOT":0},{"OBJECT_NAME":"ONEWEB-0274","OBJECT_ID":"2021-060AB","EPOCH":"2026-03-13T09:48:01.326816","MEAN_MOTION":13.16594049,"ECCENTRICITY":0.00013972,"INCLINATION":87.8997,"RA_OF_ASC_NODE":247.8432,"ARG_OF_PERICENTER":104.6219,"MEAN_ANOMALY":255.5067,"EPHEMERIS_TYPE":0,"CLASSIFICATION_TYPE":"U","NORAD_CAT_ID":48992,"ELEMENT_SET_NO":999,"REV_AT_EPOCH":22702,"BSTAR":0.000124598,"MEAN_MOTION_DOT":6.0e-7,"MEAN_MOTION_DDOT":0},{"OBJECT_NAME":"ONEWEB-0275","OBJECT_ID":"2021-060AC","EPOCH":"2026-03-13T00:24:52.954848","MEAN_MOTION":13.16593563,"ECCENTRICITY":0.00016585,"INCLINATION":87.9006,"RA_OF_ASC_NODE":247.9011,"ARG_OF_PERICENTER":100.0258,"MEAN_ANOMALY":260.106,"EPHEMERIS_TYPE":0,"CLASSIFICATION_TYPE":"U","NORAD_CAT_ID":48993,"ELEMENT_SET_NO":999,"REV_AT_EPOCH":22690,"BSTAR":0.00024383617,"MEAN_MOTION_DOT":1.06e-6,"MEAN_MOTION_DDOT":0},{"OBJECT_NAME":"ONEWEB-0276","OBJECT_ID":"2021-060AD","EPOCH":"2026-03-13T10:19:56.496000","MEAN_MOTION":13.16594165,"ECCENTRICITY":0.00018412,"INCLINATION":87.9009,"RA_OF_ASC_NODE":247.8188,"ARG_OF_PERICENTER":94.8695,"MEAN_ANOMALY":265.2646,"EPHEMERIS_TYPE":0,"CLASSIFICATION_TYPE":"U","NORAD_CAT_ID":48994,"ELEMENT_SET_NO":999,"REV_AT_EPOCH":22697,"BSTAR":-3.248332e-6,"MEAN_MOTION_DOT":1.2e-7,"MEAN_MOTION_DDOT":0},{"OBJECT_NAME":"ONEWEB-0277","OBJECT_ID":"2021-060AE","EPOCH":"2026-03-13T10:38:09.589056","MEAN_MOTION":13.16594901,"ECCENTRICITY":0.00017902,"INCLINATION":87.8996,"RA_OF_ASC_NODE":247.8311,"ARG_OF_PERICENTER":100.2996,"MEAN_ANOMALY":259.8336,"EPHEMERIS_TYPE":0,"CLASSIFICATION_TYPE":"U","NORAD_CAT_ID":48995,"ELEMENT_SET_NO":999,"REV_AT_EPOCH":22696,"BSTAR":-9.151483e-5,"MEAN_MOTION_DOT":-2.2e-7,"MEAN_MOTION_DDOT":0},{"OBJECT_NAME":"ONEWEB-0278","OBJECT_ID":"2021-060AF","EPOCH":"2026-03-13T10:24:29.491488","MEAN_MOTION":13.16594204,"ECCENTRICITY":0.00016936,"INCLINATION":87.9013,"RA_OF_ASC_NODE":247.8153,"ARG_OF_PERICENTER":87.9399,"MEAN_ANOMALY":272.1926,"EPHEMERIS_TYPE":0,"CLASSIFICATION_TYPE":"U","NORAD_CAT_ID":48996,"ELEMENT_SET_NO":999,"REV_AT_EPOCH":22709,"BSTAR":-2.1479135e-5,"MEAN_MOTION_DOT":5.0e-8,"MEAN_MOTION_DDOT":0},{"OBJECT_NAME":"ONEWEB-0279","OBJECT_ID":"2021-060AG","EPOCH":"2026-03-13T10:35:53.928096","MEAN_MOTION":13.16593106,"ECCENTRICITY":0.00017363,"INCLINATION":87.901,"RA_OF_ASC_NODE":247.8126,"ARG_OF_PERICENTER":106.0283,"MEAN_ANOMALY":254.1039,"EPHEMERIS_TYPE":0,"CLASSIFICATION_TYPE":"U","NORAD_CAT_ID":48997,"ELEMENT_SET_NO":999,"REV_AT_EPOCH":22702,"BSTAR":-0.0001038061,"MEAN_MOTION_DOT":-2.7e-7,"MEAN_MOTION_DDOT":0},{"OBJECT_NAME":"ONEWEB-0280","OBJECT_ID":"2021-060AH","EPOCH":"2026-03-13T10:57:33.852384","MEAN_MOTION":13.16594057,"ECCENTRICITY":0.00020016,"INCLINATION":87.9008,"RA_OF_ASC_NODE":247.8146,"ARG_OF_PERICENTER":92.8147,"MEAN_ANOMALY":267.3213,"EPHEMERIS_TYPE":0,"CLASSIFICATION_TYPE":"U","NORAD_CAT_ID":48998,"ELEMENT_SET_NO":999,"REV_AT_EPOCH":22696,"BSTAR":4.8769225e-5,"MEAN_MOTION_DOT":3.2e-7,"MEAN_MOTION_DDOT":0},{"OBJECT_NAME":"ONEWEB-0281","OBJECT_ID":"2021-060AJ","EPOCH":"2026-03-13T11:05:32.300160","MEAN_MOTION":13.16593986,"ECCENTRICITY":0.00015472,"INCLINATION":87.9005,"RA_OF_ASC_NODE":247.8077,"ARG_OF_PERICENTER":98.4312,"MEAN_ANOMALY":261.6995,"EPHEMERIS_TYPE":0,"CLASSIFICATION_TYPE":"U","NORAD_CAT_ID":48999,"ELEMENT_SET_NO":999,"REV_AT_EPOCH":22703,"BSTAR":0.0002457351,"MEAN_MOTION_DOT":1.07e-6,"MEAN_MOTION_DDOT":0}]
