ONEWEB-0266             
1 48984U 21060T   26072.44950774  .00000025  00000+0  30781-4 0  9998
2 48984  87.9008 247.8138 0001669  93.5902 266.5420 13.16596563226987
ONEWEB-0267             
1 48985U 21060U   26072.46059307  .00000061  00000+0  12482-3 0  9990
2 48985  87.9005 247.8081 0001736 103.1610 256.9715 13.16593365226999
ONEWEB-0268             
1 48986U 21060V   26072.04894667 -.00000025  00000+0 -98807-4 0  9999
2 48986  87.9007 247.9001 0001602  98.3349 261.7964 13.16593854227209
ONEWEB-0269             
1 48987U 21060W   26072.40993002  .00000056  00000+0  11346-3 0  9997
2 48987  87.8997 247.8414 0001470  93.1883 266.9416 13.16594347227020
ONEWEB-0270             
1 48988U 21060X   26071.51538510  .00000001  00000+0 -31829-4 0  9998
2 48988  87.9007 248.0083 0002037 102.2270 257.9089 13.16593872226949
ONEWEB-0271             
1 48989U 21060Y   26072.41466356  .00000040  00000+0  70947-4 0  9993
2 48989  87.9008 247.8198 0001829 103.6247 256.5088 13.16596908227063
ONEWEB-0272             
1 48990U 21060Z   26072.43682682 -.00000172  00000+0 -48382-3 0  9994
2 48990  87.9006 247.8265 0001612 105.8758 254.2550 13.16593314227011
ONEWEB-0273             
1 48991U 21060AA  26072.45901374  .00000054  00000+0  10763-3 0  9998
2 48991  87.9006 247.8203 0001794  99.6042 260.5292 13.16593412226999
ONEWEB-0274             
1 48992U 21060AB  26072.40834869  .00000060  00000+0  12460-3 0  9991
2 48992  87.8997 247.8432 0001397 104.6219 255.5067 13.16594049227020
ONEWEB-0275             
1 48993U 21060AC  26072.01727957  .00000106  00000+0  24384-3 0  9997
2 48993  87.9006 247.9011 0001658 100.0258 260.1060 13.16593563226901
ONEWEB-0276             
1 48994U 21060AD  26072.43051500  .00000012  00000+0 -32483-5 0  9996
2 48994  87.9009 247.8188 0001841  94.8695 265.2646 13.16594165226970
ONEWEB-0277             
1 48995U 21060AE  26072.44316654 -.00000022  00000+0 -91515-4 0  9994
2 48995  87.8996 247.8311 0001790 100.2996 259.8336 13.16594901226964
ONEWEB-0278             
1 48996U 21060AF  26072.43367467  .00000005  00000+0 -21479-4 0  9994
2 48996  87.9013 247.8153 0001693  87.9399 272.1926 13.16594204227094
ONEWEB-0279             
1 48997U 21060AG  26072.44159639 -.00000027  00000+0 -10381-3 0  9990
2 48997  87.9010 247.8126 0001736 106.0283 254.1039 13.16593106227023
ONEWEB-0280             
1 48998U 21060AH  26072.45664181  .00000032  00000+0  48769-4 0  9991
2 48998  87.9008 247.8146 0002001  92.8147 267.3213 13.16594057226968
ONEWEB-0281             
1 48999U 21060AJ  26072.46217940  .00000107  00000+0  24574-3 0  9990
2 48999  87.9005 247.8077 0001547  98.4312 261.6995 13.16593986227032
